{
  "type": "FeatureCollection",
  "features": [
    {
      "type": "Feature",
      "properties": {
        "norad_id": 33913,
        "name": "COSMOS 2251 DEB",
        "group": "cosmos-2251-debris",
        "lat": -56.64276729422004,
        "lon": 136.46298816823676,
        "alt_km": 709.8029368520647,
        "timestamp": "2025-12-24T03:53:30.040178+00:00",
        "meta_object_name": "COSMOS 2251 DEB",
        "meta_object_id": "1993-036DS",
        "meta_epoch": "2025-12-23T11:54:02.602080",
        "meta_mean_motion": 14.48527536,
        "meta_eccentricity": 0.0048162,
        "meta_inclination": 74.0323,
        "meta_ra_of_asc_node": 163.4923,
        "meta_arg_of_pericenter": 264.0515,
        "meta_mean_anomaly": 162.2664,
        "meta_ephemeris_type": 0,
        "meta_classification_type": "U",
        "meta_norad_cat_id": 33913,
        "meta_element_set_no": 999,
        "meta_rev_at_epoch": 88613,
        "meta_bstar": 0.0005159,
        "meta_mean_motion_dot": 1.937e-05,
        "meta_mean_motion_ddot": 0,
        "tle_line1": "1 33913U 93036DS  25357.49586345  .00001937  00000+0  51590-3 0  9998",
        "tle_line2": "2 33913  74.0323 163.4923 0048162 264.0515 162.2664 14.48527536886130"
      },
      "geometry": {
        "type": "Point",
        "coordinates": [
          136.46298816823676,
          -56.64276729422004
        ]
      }
    },
    {
      "type": "Feature",
      "properties": {
        "norad_id": 33914,
        "name": "COSMOS 2251 DEB",
        "group": "cosmos-2251-debris",
        "lat": -1.5205074728152579,
        "lon": -4.162688693482067,
        "alt_km": 1019.5366189637853,
        "timestamp": "2025-12-24T03:53:30.040189+00:00",
        "meta_object_name": "COSMOS 2251 DEB",
        "meta_object_id": "1993-036DT",
        "meta_epoch": "2025-12-23T01:55:15.993408",
        "meta_mean_motion": 13.71990699,
        "meta_eccentricity": 0.03008091,
        "meta_inclination": 74.0911,
        "meta_ra_of_asc_node": 358.0537,
        "meta_arg_of_pericenter": 98.5842,
        "meta_mean_anomaly": 320.6967,
        "meta_ephemeris_type": 0,
        "meta_classification_type": "U",
        "meta_norad_cat_id": 33914,
        "meta_element_set_no": 999,
        "meta_rev_at_epoch": 84223,
        "meta_bstar": 0.00023617071,
        "meta_mean_motion_dot": 2.77e-06,
        "meta_mean_motion_ddot": 0,
        "tle_line1": "1 33914U 93036DT  25357.08004622  .00000277  00000+0  23617-3 0  9992",
        "tle_line2": "2 33914  74.0911 358.0537 0300809  98.5842 320.6967 13.71990699842237"
      },
      "geometry": {
        "type": "Point",
        "coordinates": [
          -4.162688693482067,
          -1.5205074728152579
        ]
      }
    },
    {
      "type": "Feature",
      "properties": {
        "norad_id": 33915,
        "name": "COSMOS 2251 DEB",
        "group": "cosmos-2251-debris",
        "lat": -16.828097066439632,
        "lon": -161.86171482516815,
        "alt_km": 784.6230231740292,
        "timestamp": "2025-12-24T03:53:30.040199+00:00",
        "meta_object_name": "COSMOS 2251 DEB",
        "meta_object_id": "1993-036DU",
        "meta_epoch": "2025-12-23T00:18:33.427296",
        "meta_mean_motion": 14.35104776,
        "meta_eccentricity": 0.01040199,
        "meta_inclination": 74.043,
        "meta_ra_of_asc_node": 15.2793,
        "meta_arg_of_pericenter": 105.0476,
        "meta_mean_anomaly": 276.0148,
        "meta_ephemeris_type": 0,
        "meta_classification_type": "U",
        "meta_norad_cat_id": 33915,
        "meta_element_set_no": 999,
        "meta_rev_at_epoch": 87905,
        "meta_bstar": 0.00032732838,
        "meta_mean_motion_dot": 9.67e-06,
        "meta_mean_motion_ddot": 0,
        "tle_line1": "1 33915U 93036DU  25357.01288689  .00000967  00000+0  32733-3 0  9998",
        "tle_line2": "2 33915  74.0430  15.2793 0104019 105.0476 276.0148 14.35104776879051"
      },
      "geometry": {
        "type": "Point",
        "coordinates": [
          -161.86171482516815,
          -16.828097066439632
        ]
      }
    },
    {
      "type": "Feature",
      "properties": {
        "norad_id": 33916,
        "name": "COSMOS 2251 DEB",
        "group": "cosmos-2251-debris",
        "lat": 50.881231399111506,
        "lon": -178.76542995361916,
        "alt_km": 893.1383607678572,
        "timestamp": "2025-12-24T03:53:30.040209+00:00",
        "meta_object_name": "COSMOS 2251 DEB",
        "meta_object_id": "1993-036DV",
        "meta_epoch": "2025-12-23T12:03:54.466272",
        "meta_mean_motion": 13.68624662,
        "meta_eccentricity": 0.0324861,
        "meta_inclination": 74.0519,
        "meta_ra_of_asc_node": 22.9036,
        "meta_arg_of_pericenter": 192.7435,
        "meta_mean_anomaly": 288.8859,
        "meta_ephemeris_type": 0,
        "meta_classification_type": "U",
        "meta_norad_cat_id": 33916,
        "meta_element_set_no": 999,
        "meta_rev_at_epoch": 84038,
        "meta_bstar": 0.00030302,
        "meta_mean_motion_dot": 3.54e-06,
        "meta_mean_motion_ddot": 0,
        "tle_line1": "1 33916U 93036DV  25357.50271373  .00000354  00000+0  30302-3 0  9995",
        "tle_line2": "2 33916  74.0519  22.9036 0324861 192.7435 288.8859 13.68624662840382"
      },
      "geometry": {
        "type": "Point",
        "coordinates": [
          -178.76542995361916,
          50.881231399111506
        ]
      }
    },
    {
      "type": "Feature",
      "properties": {
        "norad_id": 33917,
        "name": "COSMOS 2251 DEB",
        "group": "cosmos-2251-debris",
        "lat": -55.04759967879962,
        "lon": -52.281064137156584,
        "alt_km": 808.5742597802655,
        "timestamp": "2025-12-24T03:53:30.040220+00:00",
        "meta_object_name": "COSMOS 2251 DEB",
        "meta_object_id": "1993-036DW",
        "meta_epoch": "2025-12-23T07:26:53.640384",
        "meta_mean_motion": 13.6938158,
        "meta_eccentricity": 0.03312166,
        "meta_inclination": 74.1071,
        "meta_ra_of_asc_node": 105.0613,
        "meta_arg_of_pericenter": 203.7264,
        "meta_mean_anomaly": 154.8283,
        "meta_ephemeris_type": 0,
        "meta_classification_type": "U",
        "meta_norad_cat_id": 33917,
        "meta_element_set_no": 999,
        "meta_rev_at_epoch": 83878,
        "meta_bstar": 0.00083836562,
        "meta_mean_motion_dot": 1.049e-05,
        "meta_mean_motion_ddot": 0,
        "tle_line1": "1 33917U 93036DW  25357.31034306  .00001049  00000+0  83837-3 0  9991",
        "tle_line2": "2 33917  74.1071 105.0613 0331216 203.7264 154.8283 13.69381580838780"
      },
      "geometry": {
        "type": "Point",
        "coordinates": [
          -52.281064137156584,
          -55.04759967879962
        ]
      }
    },
    {
      "type": "Feature",
      "properties": {
        "norad_id": 33920,
        "name": "COSMOS 2251 DEB",
        "group": "cosmos-2251-debris",
        "lat": 14.039728188362826,
        "lon": -79.18112296935341,
        "alt_km": 700.2673931297504,
        "timestamp": "2025-12-24T03:53:30.040230+00:00",
        "meta_object_name": "COSMOS 2251 DEB",
        "meta_object_id": "1993-036DZ",
        "meta_epoch": "2025-12-23T01:29:04.163136",
        "meta_mean_motion": 14.58425135,
        "meta_eccentricity": 0.00378205,
        "meta_inclination": 74.0612,
        "meta_ra_of_asc_node": 278.8111,
        "meta_arg_of_pericenter": 283.8425,
        "meta_mean_anomaly": 75.8533,
        "meta_ephemeris_type": 0,
        "meta_classification_type": "U",
        "meta_norad_cat_id": 33920,
        "meta_element_set_no": 999,
        "meta_rev_at_epoch": 88265,
        "meta_bstar": 0.001742781,
        "meta_mean_motion_dot": 8.141e-05,
        "meta_mean_motion_ddot": 0,
        "tle_line1": "1 33920U 93036DZ  25357.06185374  .00008141  00000+0  17428-2 0  9991",
        "tle_line2": "2 33920  74.0612 278.8111 0037820 283.8425  75.8533 14.58425135882657"
      },
      "geometry": {
        "type": "Point",
        "coordinates": [
          -79.18112296935341,
          14.039728188362826
        ]
      }
    },
    {
      "type": "Feature",
      "properties": {
        "norad_id": 33922,
        "name": "COSMOS 2251 DEB",
        "group": "cosmos-2251-debris",
        "lat": 25.791965854207902,
        "lon": -61.59886318810121,
        "alt_km": 723.7420374885342,
        "timestamp": "2025-12-24T03:53:30.040240+00:00",
        "meta_object_name": "COSMOS 2251 DEB",
        "meta_object_id": "1993-036EB",
        "meta_epoch": "2025-12-22T20:27:48.551328",
        "meta_mean_motion": 14.49542252,
        "meta_eccentricity": 0.00231516,
        "meta_inclination": 74.0469,
        "meta_ra_of_asc_node": 128.8012,
        "meta_arg_of_pericenter": 238.3106,
        "meta_mean_anomaly": 284.2468,
        "meta_ephemeris_type": 0,
        "meta_classification_type": "U",
        "meta_norad_cat_id": 33922,
        "meta_element_set_no": 999,
        "meta_rev_at_epoch": 88724,
        "meta_bstar": 0.00043668701,
        "meta_mean_motion_dot": 1.653e-05,
        "meta_mean_motion_ddot": 0,
        "tle_line1": "1 33922U 93036EB  25356.85264527  .00001653  00000+0  43669-3 0  9995",
        "tle_line2": "2 33922  74.0469 128.8012 0023151 238.3106 284.2468 14.49542252887249"
      },
      "geometry": {
        "type": "Point",
        "coordinates": [
          -61.59886318810121,
          25.791965854207902
        ]
      }
    }
  ]
}